[{"OBJECT_NAME":"TEVEL2-4","OBJECT_ID":"2025-052D","EPOCH":"2026-03-09T16:39:37.129536","MEAN_MOTION":15.30925813,"ECCENTRICITY":0.0004733,"INCLINATION":97.4009,"RA_OF_ASC_NODE":325.1237,"ARG_OF_PERICENTER":95.3468,"MEAN_ANOMALY":264.8313,"EPHEMERIS_TYPE":0,"CLASSIFICATION_TYPE":"U","NORAD_CAT_ID":63213,"ELEMENT_SET_NO":999,"REV_AT_EPOCH":5487,"BSTAR":0.00070362503,"MEAN_MOTION_DOT":0.0002099,"MEAN_MOTION_DDOT":0},{"OBJECT_NAME":"STARLINK-34857","OBJECT_ID":"2025-167AA","EPOCH":"2026-03-09T04:13:24.070656","MEAN_MOTION":15.30200552,"ECCENTRICITY":0.00012205,"INCLINATION":53.1599,"RA_OF_ASC_NODE":28.8656,"ARG_OF_PERICENTER":62.4752,"MEAN_ANOMALY":297.6373,"EPHEMERIS_TYPE":0,"CLASSIFICATION_TYPE":"U","NORAD_CAT_ID":65102,"ELEMENT_SET_NO":999,"REV_AT_EPOCH":3340,"BSTAR":0.00088164537,"MEAN_MOTION_DOT":0.00025844,"MEAN_MOTION_DDOT":0}]
